APRIZESAT 2             
1 28366U 04025A   17065.74834360  .00000026  00000-0  22675-4 0  9994
2 28366  98.3407 342.8959 0107791 357.4240   2.6378 14.36591970664881
SAUDICOMSAT 1           
1 28369U 04025D   17065.82796058  .00000093  00000-0  33697-4 0  9997
2 28369  98.1825  20.4247 0033270 341.8464  18.1541 14.52338807671934
SAUDICOMSAT 2           
1 28370U 04025E   17066.38047528  .00000091  00000-0  36284-4 0  9995
2 28370  98.2906  13.4361 0059162 100.7151 260.0710 14.47286718669737
APRIZESAT 1             
1 28372U 04025G   17065.85007826  .00000049  00000-0  24110-4 0  9993
2 28372  98.2433  16.0456 0047355  44.6662 315.8331 14.49481081670745
NANOSAT-1               
1 28493U 04049B   17066.16063407  .00000126  00000-0  27490-4 0  9995
2 28493  98.2139 134.5769 0003897 343.2986  16.8092 14.73285452655909
SAUDICOMSAT 7           
1 31119U 07012C   17065.86945677  .00000129  00000-0  34549-4 0  9997
2 31119  97.9359  32.8972 0060848  25.4695 334.9483 14.61559628527013
SAUDICOMSAT 6           
1 31121U 07012E   17065.84295255  .00000103  00000-0  31068-4 0  9993
2 31121  98.0022  24.8681 0078140  86.4767 274.5366 14.58360046525886
SAUDICOMSAT 5           
1 31124U 07012H   17066.46565345  .00000143  00000-0  36318-4 0  9992
2 31124  97.8972  38.3783 0051631 352.7587   7.2865 14.63245012527673
SAUDICOMSAT 3           
1 31125U 07012J   17066.50612406  .00000136  00000-0  33755-4 0  9993
2 31125  97.8586  43.6332 0042584 322.3573  37.4652 14.64961141528263
SAUDICOMSAT 4           
1 31127U 07012L   17066.44760591  .00000118  00000-0  33232-4 0  9997
2 31127  97.9683  29.7007 0069343  52.4883 308.2594 14.60071489526563
APRIZESAT 4             
1 35684U 09041D   17066.43484708  .00000126  00000-0  24189-4 0  9995
2 35684  98.1201   7.6705 0048629  65.7633  50.0877 14.78999110410093
APRIZESAT 3             
1 35686U 09041F   17065.94468547  .00000287  00000-0  37573-4 0  9994
2 35686  98.2725  61.2081 0072983 346.8570  13.0741 14.87029595411948
AISSAT 1                
1 36797U 10035C   17065.88757885  .00000349  00000-0  46609-4 0  9991
2 36797  98.0296 178.7740 0010527 336.6911  23.3825 14.85782512359986
